ONEWEB-0233             
1 48795U 21045AE  24292.69074055  .00000250  00000+0  63034-3 0  9995
2 48795  87.9127  19.9572 0002036  94.7548 265.3815 13.15551961164558
ONEWEB-0190             
1 48796U 21045AF  24292.29697507  .00000141  00000+0  34158-3 0  9999
2 48796  87.9129  19.9963 0002841 100.3469 259.7982 13.15552484164570
ONEWEB-0236             
1 48797U 21045AG  24292.69468953  .00000213  00000+0  53048-3 0  9994
2 48797  87.9125  19.9157 0001892  96.7130 263.4216 13.15551862164515
ONEWEB-0248             
1 48798U 21045AH  24292.93554588  .00000181  00000+0  44585-3 0  9992
2 48798  87.9123  19.8476 0002526  88.2947 271.8473 13.15546458164708
ONEWEB-0225             
1 48799U 21045AJ  24292.50138750 -.00000080  00000+0 -24699-3 0  9999
2 48799  87.9127  19.9515 0002282  98.7806 261.3583 13.15547268164657
ONEWEB-0215             
1 48800U 21045AK  24292.69945254  .00000178  00000+0  43790-3 0  9996
2 48800  87.9120  19.8793 0002603  91.2739 268.8689 13.15546033164557
ONEWEB-0216             
1 48801U 21045AL  24292.93712994  .00000123  00000+0  29390-3 0  9997
2 48801  87.9125  19.8748 0001984 108.1744 251.9603 13.15546113164590
ONEWEB-0239             
1 48802U 21045AM  24292.94188280 -.00000273  00000+0 -76008-3 0  9990
2 48802  87.9132  19.8604 0002634  86.8616 273.2816 13.15548166164631
